#aV2019 12 23  0  0  0.00000000     288 DD+AD WGS84 FIT  NGA
## 2085  86400.00000000   300.00000000 58840 0.0000000000000
+   32     1  2  3  4  5  6  7  8  9 10 11 12 13 14 15 16 17
+         18 19 20 21 22 23 24 25 26 27 28 29 30 31 32  0  0
+          0  0  0  0  0  0  0  0  0  0  0  0  0  0  0  0  0
+          0  0  0  0  0  0  0  0  0  0  0  0  0  0  0  0  0
+          0  0  0  0  0  0  0  0  0  0  0  0  0  0  0  0  0
++         2  2  2  2  2  2  2  2  2  2  2  2  2  2  2  2  2
++         2  2  2  2  2  2  2  2  2  2  2  2  2  2  2  0  0
++         0  0  0  0  0  0  0  0  0  0  0  0  0  0  0  0  0
++         0  0  0  0  0  0  0  0  0  0  0  0  0  0  0  0  0
++         0  0  0  0  0  0  0  0  0  0  0  0  0  0  0  0  0
%c cc cc ccc ccc cccc cccc cccc cccc ccccc ccccc ccccc ccccc
%c cc cc ccc ccc cccc cccc cccc cccc ccccc ccccc ccccc ccccc
%f  0.0000000  0.000000000  0.00000000000  0.000000000000000
%f  0.0000000  0.000000000  0.00000000000  0.000000000000000
%i    0    0    0    0      0      0      0      0         0
%i    0    0    0    0      0      0      0      0         0
/*      NGA, ST. LOUIS,MO.                                  
/*   EPHEMERIS COMPUTED FROM 2 DAYS OF DATA                 
/*   EPOCHA v5 SMOOTHER                                     
/*   G1762 IERS2010 SATAF SATAPC                            
*  2019 12 23 13 40  0.00000000
P  1 -13883.802247  22162.023571  -3701.127871   -238.986576                    
V  1  -4692.439545   2046.833504  31898.658152     -0.122725                    
P  2  19007.783429  -9058.831400 -15489.340030   -371.920763                    
V  2  -9573.131439  18697.826250 -21912.244908     -0.073444                    
P  3  -8621.835663  13674.722093 -21116.714525    -58.175102                    
V  3 -26383.401793  -4054.890424   8256.179286     -0.070439                    
P  4  -3494.193328  21245.758764 -15534.943637    -24.271094                    
V  4  -8975.084544 -17705.810908 -22203.719967     -0.049347                    
P  5  25187.518462  -3287.357801   7952.933976     -5.085041                    
V  5   9933.304651   3738.345094 -29217.590599     -0.005238                    
P  6  14641.284263   4745.169374 -21599.566462   -161.848286                    
V  6 -16228.054364  22192.348484  -6081.602312     -0.108708                    
P  7   -152.774911  20174.296398  17308.502264   -176.202224                    
V  7 -14891.348899  15828.106150 -19363.386599     -0.082468                    
P  8 -10014.123157  12893.101197  20936.383636    -17.737107                    
V  8 -11440.968513 -23952.952519   9517.756018     -0.013049                    
P  9   5606.656413  25028.294073  -6930.799507   -115.150605                    
V  9  -6204.493478  -6822.775275 -29904.350134     -0.092449                    
P 10 -20222.923346 -11578.597106  13023.956034   -182.871062                    
V 10  16453.487787      8.487215  25465.426062     -0.140424                    
P 11  -8204.510660  24965.213291   4290.609331   -411.095648                    
V 11  -2860.574277  -6709.007862  29799.842954      0.109163                    
P 12  13646.578919 -11048.343667 -20095.617248    170.161878                    
V 12  24378.762329   5758.976933  13702.912372     -0.040383                    
P 13  14500.572811  -3894.390095  21785.146061    -24.799750                    
V 13   7562.719854  26896.086510   -149.748091      0.024842                    
P 14 -16512.694854 -10734.718135 -17578.120864    -43.152619                    
V 14  -5629.729354 -22265.342299  18364.617473      0.022269                    
P 15   8994.208624 -14619.518455  19874.846210   -263.687471                    
V 15  13843.394870  22217.568509  10311.825506      0.026388                    
P 16 -25738.921914   -602.487385   7220.521636   -105.972117                    
V 16  -8726.377323  -3666.857586 -30144.286860     -0.039169                    
P 17  14124.595009  20042.947640  -9863.729520    185.807298                    
V 17   2601.204005  12982.140103  28796.107898      0.067440                    
P 18 -17063.311552  19692.308163   4377.043152    108.588670                    
V 18    976.028370  -6831.946620  31079.618814      0.025848                    
P 19  15836.766177  13586.511809 -16718.391450   -222.430346                    
V 19   4766.222988  20118.594602  21250.225167      0.051636                    
P 20 -10917.154687 -14381.022219  19443.297109    527.695419                    
V 20  24935.328656  -1519.760067  12611.260908      0.000471                    
P 21  -3594.133701 -19094.485913  18996.100858    -66.592302                    
V 21  13460.330484 -18015.889205 -16037.294940      0.057017                    
P 22 -16554.153479  11826.394839 -16801.909455   -778.934920                    
V 22 -21764.661916  -3409.368087  18905.690386     -0.017849                    
P 23  -1503.278883  21951.309457 -14250.115688   -147.769381                    
V 23 -10350.703998 -16066.615676 -23475.499542      0.023969                    
P 24  14013.078753 -22309.477925  -1101.151541     -6.612975                    
V 24   3879.004481   1156.772989  31422.583642     -0.005920                    
P 25  -1798.776009 -15376.370401 -21825.247413    -17.122110                    
V 25  26953.135782   3206.975196  -4263.641736      0.003572                    
P 26 -26189.727011  -4357.255783  -2620.105639    111.811582                    
V 26   3552.534971  -2665.748565 -31122.128058      0.081190                    
P 27 -15530.476033    397.867759  21472.110816   -159.153723                    
V 27 -10373.430021 -25399.973833  -6685.789701     -0.115607                    
P 28  19673.964778  13022.833769  12664.371915    749.168745                    
V 28 -15167.992536  -1533.561803  26531.224106     -0.018250                    
P 29  -3486.175021 -25256.524139  -7433.402591     11.133496                    
V 29   4872.885072   8243.385910 -30433.106160     -0.096988                    
P 30   9634.724103  12730.273608  21236.976523   -112.462231                    
V 30 -17554.697966  20521.624672  -4538.225988     -0.086633                    
P 31 -16642.392476  -2452.937547 -20685.263352    -11.714462                    
V 31  15795.623898 -20787.704637  -9801.785248     -0.025383                    
P 32 -15938.840636 -18635.517486 -10310.738409    163.960154                    
V 32  -2876.814508 -13072.458624  27776.330426      0.111644                    
EOF
